EYESAT-1 (AO-27)        
1 22825U 93061C   16109.11896983  .00000038  00000-0  32122-4 0  9995
2 22825  98.7533  65.0149 0009246 128.5359 231.6653 14.29949890176651
CUTE-1 (CO-55)          
1 27844U 03031E   16108.93827582  .00000135  00000-0  81032-4 0  9999
2 27844  98.6940 118.0870 0010632 132.6598 227.5477 14.21937169663848
CUBESAT XI-IV (CO-57)   
1 27848U 03031J   16108.75439766  .00000109  00000-0  69620-4 0  9996
2 27848  98.7037 117.9682 0010416 140.7174 219.4761 14.21565013663727
CUBESAT XI-V (CO-58)    
1 28895U 05043F   16109.46396986  .00000407  00000-0  87519-4 0  9997
2 28895  97.8292 286.4171 0018001  51.1844 309.0963 14.63162467558371
CUTE-1.7+APD II (CO-65) 
1 32785U 08021C   16108.83077880  .00000724  00000-0  85438-4 0  9998
2 32785  97.6092 145.5398 0014488 132.5112 227.7331 14.87499750431653
COMPASS-1               
1 32787U 08021E   16108.89726349  .00001318  00000-0  13557-3 0  9999
2 32787  97.6097 151.6832 0014386 114.3523 245.9200 14.91882359432027
AAUSAT-II               
1 32788U 08021F   16109.53422999  .00001855  00000-0  18309-3 0  9992
2 32788  97.6100 154.3596 0013832 108.1455 252.1273 14.93074504432296
DELFI-C3 (DO-64)        
1 32789U 08021G   16108.88196235  .00003803  00000-0  28729-3 0  9993
2 32789  97.6127 169.1634 0015944 104.9787 255.3205 15.02878375432841
CANX-2                  
1 32790U 08021H   16109.14177794  .00000679  00000-0  80961-4 0  9999
2 32790  97.6050 144.5480 0015152 132.8727 227.3765 14.87270741431652
SEEDS II (CO-66)        
1 32791U 08021J   16108.80508396  .00001079  00000-0  11814-3 0  9993
2 32791  97.6099 148.4723 0015042 123.4869 236.7789 14.89669456431804
SWISSCUBE               
1 35932U 09051B   16108.85943639  .00000441  00000-0  11154-3 0  9994
2 35932  98.4388 235.2540 0008931 116.5432 243.6681 14.55781275348435
BEESAT                  
1 35933U 09051C   16109.15919873  .00000367  00000-0  94343-4 0  9991
2 35933  98.4413 236.6207 0006991 126.0788 234.1057 14.55927901348579
ITUPSAT 1               
1 35935U 09051E   16109.32732109  .00000325  00000-0  86049-4 0  9995
2 35935  98.4522 237.0386 0009380 119.5194 240.6939 14.55140908348449
TISAT 1                 
1 36799U 10035E   16109.27460092  .00001387  00000-0  15093-3 0  9990
2 36799  98.0241 218.6544 0011212 283.3356  76.6611 14.89692463312507
M-CUBED & EXP-1 PRIME   
1 37855U 11061F   16108.99263417  .00002555  00000-0  14699-3 0  9993
2 37855 101.7195 119.3310 0187797 255.2310 102.8025 15.00729145242964
HORYU 2                 
1 38340U 12025D   16109.47529511  .00000696  00000-0  11155-3 0  9996
2 38340  98.3515  93.1290 0011200 196.1044 163.9810 14.74964533210674
STRAND-1                
1 39090U 13009E   16108.80984318  .00000095  00000-0  49075-4 0  9994
2 39090  98.5890 311.3807 0010235 117.5333 242.6893 14.34888269164456
BRITE-AUSTRIA           
1 39091U 13009F   16109.54223348  .00000072  00000-0  40864-4 0  9998
2 39091  98.5843 311.6509 0011479 123.4049 236.8236 14.34967891164598
UNIBRITE                
1 39092U 13009G   16108.73711691  .00000093  00000-0  48270-4 0  9994
2 39092  98.5847 310.5991 0010417 118.8307 241.3925 14.34840099164453
AIST-2                  
1 39133U 13015D   16109.44102890  .00000851  00000-0  73958-4 0  9994
2 39133  64.8761 187.4026 0003550 245.3745 192.7048 15.03819866164429
SOMP                    
1 39134U 13015E   16108.87862062  .00003718  00000-0  20481-3 0  9992
2 39134  64.8712 156.9493 0009354 252.7090 107.3012 15.15578053164592
BEESAT-2                
1 39136U 13015G   16109.52189641  .00002678  00000-0  15999-3 0  9994
2 39136  64.8715 160.2303 0008254 252.6182 107.4040 15.13327463164973
NEE-01 PEGASUS          
1 39151U 13018B   16109.46646340  .00000561  00000-0  82133-4 0  9995
2 39151  97.9968 197.3692 0016798 348.8190  11.2646 14.79410444160746
CUBEBUG-1 (CAPITAN BETO)
1 39153U 13018D   16109.31201610  .00000425  00000-0  63353-4 0  9990
2 39153  97.9977 197.6246 0016647 348.2804  11.8018 14.79827195160749
ESTCUBE 1               
1 39161U 13021C   16109.48825652  .00000542  00000-0  95022-4 0  9997
2 39161  98.0491 194.4830 0010924  63.8007 296.4334 14.71619918158284
POPACS 1                
1 39268U 13055D   16108.95239260  .00014846  00000-0  44095-3 0  9992
2 39268  81.0035  90.1650 0674267  22.0754 340.8044 14.25518106130011
POPACS 2                
1 39269U 13055E   16108.65550610  .00009685  00000-0  29042-3 0  9995
2 39269  81.0139  97.9534 0716926  43.1597 322.3530 14.16278040129766
POPACS 3                
1 39270U 13055F   16108.69087139  .00004401  00000-0  14062-3 0  9999
2 39270  81.0150 101.8083 0735988  56.0087 310.8797 14.10721773130726
PHONESAT 2.4            
1 39381U 13064B   16109.18419185  .00042993  00000-0  50195-3 0  9992
2 39381  40.4945  40.2820 0006536 276.0939  83.9139 15.60763806135480
FIREFLY                 
1 39404U 13064AA  16108.29799009  .00028478  00000-0  44066-3 0  9997
2 39404  40.5077  62.5811 0006542 271.8509  88.1562 15.53362693134604
ZACUBE-1 (TSHEPISOSAT)  
1 39417U 13066B   16108.85092998  .00000693  00000-0  95033-4 0  9998
2 39417  97.6864 164.2828 0058884 218.6352 141.0641 14.80326188129849
WNISAT-1                
1 39423U 13066H   16109.37770733  .00000314  00000-0  72533-4 0  9993
2 39423  97.6746 127.4604 0175521 327.0813  31.9557 14.52672242127556
TRITON-1                
1 39427U 13066M   16108.93665571  .00000501  00000-0  89427-4 0  9999
2 39427  97.6736 146.0650 0113347 270.0426  88.7791 14.67136522128498
GOMX 1                  
1 39430U 13066Q   16109.36557205  .00000570  00000-0  11404-3 0  9990
2 39430  97.6740 134.8460 0151329 304.7268  53.9764 14.58545748128007
BRITE-PL                
1 39431U 13066R   16108.92066464  .00000306  00000-0  75809-4 0  9991
2 39431  97.6797 119.3788 0202777 353.0778   6.7624 14.46701040126766
HUMSAT-D                
1 39433U 13066T   16109.47136842  .00001660  00000-0  17339-3 0  9999
2 39433  97.7022 177.9379 0031723 184.6692 175.4235 14.90679695130722
EAGLE 2                 
1 39436U 13066W   16108.91394966  .00025147  00000-0  11659-2 0  9997
2 39436  97.7171 194.1985 0018201 136.2267 224.0413 15.19906748130566
CUBEBUG-2 (LO-74)       
1 39440U 13066AA  16108.84815975  .00000585  00000-0  89832-4 0  9991
2 39440  97.6803 157.0019 0079994 238.4485 120.8896 14.75094175128187
NEE-02 KRYSAOR          
1 39441U 13066AB  16108.69561468  .00000392  00000-0  63605-4 0  9996
2 39441  97.6785 156.1762 0081201 240.8943 118.4119 14.74353821129280
FUNCUBE-1 (AO-73)       
1 39444U 13066AE  16108.89555135  .00000866  00000-0  11534-3 0  9994
2 39444  97.6873 164.8657 0058209 216.6933 143.0289 14.80979405128068
UWE-3                   
1 39446U 13066AG  16109.41073033  .00000638  00000-0  92876-4 0  9993
2 39446  97.6826 161.0084 0069870 226.8268 132.7091 14.77615711128464
BRITE-TORONTO           
1 40020U 14033L   16109.52128051  .00000201  00000-0  43303-4 0  9998
2 40020  97.8963 351.8438 0086594 236.3489 122.9434 14.66238814 97856
DUCHIFAT-1              
1 40021U 14033M   16109.35072268  .00001423  00000-0  15646-3 0  9993
2 40021  97.9357  15.7514 0011751 259.2786 100.7108 14.89189429 99354
FLOCK 1C-10             
1 40023U 14033P   16109.55649986  .00000498  00000-0  60506-4 0  9991
2 40023  97.9382  15.6282 0012071 263.1938  96.7908 14.87890554 99341
NANOSATC-BR1            
1 40024U 14033Q   16109.24092353  .00001167  00000-0  13125-3 0  9996
2 40024  97.9332  15.1144 0011008 259.3053 100.6925 14.88614214 99312
QB50P1                  
1 40025U 14033R   16109.54582515  .00000897  00000-0  10401-3 0  9997
2 40025  97.9328  15.0109 0011210 259.7083 100.2869 14.87934463 99335
FLOCK 1C-7              
1 40026U 14033S   16109.37056546  .00002005  00000-0  22194-3 0  9994
2 40026  97.9415  15.6444 0010159 264.0630  95.9438 14.88465966 99339
FLOCK 1C-1              
1 40027U 14033T   16109.55502459  .00000494  00000-0  59894-4 0  9992
2 40027  97.9395  15.7137 0011772 260.1584  99.8314 14.88043479 99353
POPSAT-HIP-1            
1 40028U 14033U   16109.47510150  .00000901  00000-0  10465-3 0  9994
2 40028  97.9354  15.0932 0012667 257.9165 102.0608 14.87814023 99317
FLOCK 1C-2              
1 40029U 14033V   16109.37538036  .00000823  00000-0  95777-4 0  9990
2 40029  97.9395  15.4469 0013151 255.7710 104.2047 14.87989993 99313
FLOCK 1C-4              
1 40031U 14033X   16109.43844293  .00000542  00000-0  65199-4 0  9998
2 40031  97.9397  15.5352 0013384 254.7073 105.2675 14.87964156 99311
QB50P2                  
1 40032U 14033Y   16109.53593101  .00000876  00000-0  10276-3 0  9994
2 40032  97.9315  14.5128 0010622 252.6710 107.3345 14.87498932 99309
FLOCK 1C-11             
1 40033U 14033Z   16109.42916631  .00001747  00000-0  19092-3 0  9993
2 40033  97.9397  15.9249 0011439 250.6448 109.3553 14.89133338 99358
ANTELSAT                
1 40034U 14033AA  16109.46662903  .00000614  00000-0  10030-3 0  9993
2 40034  97.9114 359.2926 0058335 216.7527 142.9673 14.73325922 98382
FLOCK 1C-9              
1 40035U 14033AB  16109.31055595  .00000639  00000-0  75689-4 0  9990
2 40035  97.9424  15.5683 0010623 251.0887 108.9186 14.88043625 99305
FLOCK 1C-6              
1 40036U 14033AC  16109.56397691  .00000353  00000-0  44386-4 0  9997
2 40036  97.9406  15.9146 0011279 249.0094 110.9952 14.88171935 99354
PERSEUS-M2              
1 40037U 14033AD  16109.40684426  .00000407  00000-0  52884-4 0  9998
2 40037  97.9353  13.8387 0013143 255.9109 104.0600 14.86002137 99220
FLOCK 1C-5              
1 40038U 14033AE  16109.37299899  .00001733  00000-0  19382-3 0  9999
2 40038  97.9419  15.6064 0013509 250.1443 109.8308 14.88183545 99313
PERSEUS-M1              
1 40039U 14033AF  16109.43445886  .00000303  00000-0  41305-4 0  9999
2 40039  97.9370  13.6201 0012883 251.3777 108.6049 14.85629802 99214
FLOCK 1C-8              
1 40040U 14033AG  16109.35713005  .00001843  00000-0  19766-3 0  9998
2 40040  97.9412  16.3400 0012344 238.4955 121.5078 14.89839084 99350
